SatCatId,ObjectName,LaunchYear,OrbitalPeriod,LaunchMass,StatusCode,Inclination,Status,UcsData,OrbitClassEstimated,LaunchSiteCountry,Owner,UseType,Purpose,LaunchVehicleClass,TLE1,TLE2,MeanMotion,Eccentricity,OrbitClass
52363,STARLINK-3830,2022,95.44,260.0,+,53.22,Active,1,LEO,USA,USA,Commercial,Communications,Falcon,1 52363U 22045AJ  23275.59260640  .00001135  00000+0  89419-4 0  9997,2 52363  53.2160 230.4337 0001404  90.5315 269.5838 15.08836392 81568,15.08836392,0.0001404,LEO
52364,STARLINK-3820,2022,95.44,260.0,+,53.22,Active,1,LEO,USA,USA,Commercial,Communications,Falcon,1 52364U 22045AK  23276.16023691  .00004788  00000+0  31871-3 0  9990,2 52364  53.2154 217.7984 0001224  91.2386 268.8746 15.08841377 81787,15.08841377,0.0001224,LEO
52365,STARLINK-3874,2022,95.44,260.0,+,53.22,Active,1,LEO,USA,USA,Commercial,Communications,Falcon,1 52365U 22045AL  23276.11608541  .00003878  00000+0  26158-3 0  9990,2 52365  53.2158 218.0818 0001321  98.9714 261.1428 15.08844658 81776,15.08844658,0.0001321,LEO
52366,STARLINK-3808,2022,95.44,260.0,+,53.22,Active,1,LEO,USA,USA,Commercial,Communications,Falcon,1 52366U 22045AM  23275.56776678  .00000607  00000+0  56253-4 0  9993,2 52366  53.2165 220.5426 0001355 102.2737 257.8407 15.08836001 81692,15.08836001,0.0001355,LEO
52367,STARLINK-3817,2022,95.44,260.0,+,53.22,Active,1,LEO,USA,USA,Commercial,Communications,Falcon,1 52367U 22045AN  23276.03880409  .00002121  00000+0  15130-3 0  9996,2 52367  53.2164 218.4275 0001473 102.5993 257.5163 15.08841937 81766,15.08841937,0.0001473,LEO
52368,STARLINK-3834,2022,95.44,260.0,+,53.22,Active,1,LEO,USA,USA,Commercial,Communications,Falcon,1 52368U 22045AP  23276.15288814  .00002829  00000+0  19578-3 0  9997,2 52368  53.2171 217.9172 0001273  99.6751 260.4385 15.08841836 81779,15.08841836,0.0001273,LEO
52369,STARLINK-3841,2022,95.44,260.0,+,53.22,Active,1,LEO,USA,USA,Commercial,Communications,Falcon,1 52369U 22045AQ  23276.23383777  .00002316  00000+0  16351-3 0  9998,2 52369  53.2169 217.5528 0001517  96.7721 263.3443 15.08853416 81790,15.08853416,0.0001517,LEO
52370,STARLINK-3827,2022,95.44,260.0,+,53.22,Active,1,LEO,USA,USA,Commercial,Communications,Falcon,1 52370U 22045AR  23275.83000457  .00001597  00000+0  11844-3 0  9998,2 52370  53.2156 219.3782 0001628  89.8716 270.2462 15.08839896 81738,15.08839896,0.0001628,LEO
52371,STARLINK-3798,2022,95.44,260.0,+,53.22,Active,1,LEO,USA,USA,Commercial,Communications,Falcon,1 52371U 22045AS  23275.82632601  .00002745  00000+0  19052-3 0  9995,2 52371  53.2159 219.3910 0001907  85.2547 274.8663 15.08839738 81724,15.08839738,0.0001907,LEO
52372,STARLINK-3796,2022,95.44,260.0,+,53.22,Active,1,LEO,USA,USA,Commercial,Communications,Falcon,1 52372U 22045AT  23276.14920338  .00002375  00000+0  16726-3 0  9993,2 52372  53.2158 217.9327 0001226 101.2012 258.9118 15.08844901 81771,15.08844901,0.0001226,LEO
52373,STARLINK-3550,2022,95.44,260.0,+,53.22,Active,1,LEO,USA,USA,Commercial,Communications,Falcon,1 52373U 22045AU  23275.87320639  .00001074  00000+0  85594-4 0  9996,2 52373  53.2189 219.1718 0001925  94.8915 265.2297 15.08836094 81749,15.08836094,0.0001925,LEO
52374,STARLINK-3762,2022,95.44,260.0,+,53.22,Active,1,LEO,USA,USA,Commercial,Communications,Falcon,1 52374U 22045AV  23276.53928536  .00007418  00000+0  48364-3 0  9992,2 52374  53.2174 216.1845 0001518 108.9111 251.2046 15.08842603 81846,15.08842603,0.0001518,LEO
52375,STARLINK-3785,2022,95.44,260.0,+,53.22,Active,1,LEO,USA,USA,Commercial,Communications,Falcon,1 52375U 22045AW  23276.14552917  .00000789  00000+0  67636-4 0  9994,2 52375  53.2158 217.9517 0001251 102.9945 257.1187 15.08834962 81780,15.08834962,0.0001251,LEO
52376,STARLINK-3767,2022,95.44,260.0,+,53.22,Active,1,LEO,USA,USA,Commercial,Communications,Falcon,1 52376U 22045AX  23275.86952814  .00000520  00000+0  50771-4 0  9998,2 52376  53.2164 219.1877 0001467 102.7831 257.3325 15.08837599 81743,15.08837599,0.0001467,LEO
52377,STARLINK-3805,2022,95.44,260.0,+,53.22,Active,1,LEO,USA,USA,Commercial,Communications,Falcon,1 52377U 22045AY  23276.15659179  .00005324  00000+0  35227-3 0  9995,2 52377  53.2160 218.1234 0001502  91.6437 268.4727 15.08847452 81775,15.08847452,0.0001502,LEO
52378,STARLINK-3806,2022,95.44,260.0,+,53.22,Active,1,LEO,USA,USA,Commercial,Communications,Falcon,1 52378U 22045AZ  23276.12712857  .00017696  00000+0  11269-2 0  9990,2 52378  53.2159 218.0341 0001357  91.2108 268.9040 15.08847946 81783,15.08847946,0.0001357,LEO
52379,STARLINK-3800,2022,95.44,260.0,+,53.22,Active,1,LEO,USA,USA,Commercial,Communications,Falcon,1 52379U 22045BA  23276.52824457  .00001261  00000+0  97311-4 0  9990,2 52379  53.2151 216.2320 0001423 104.1306 255.9844 15.08841687 81842,15.08841687,0.0001423,LEO
52380,STARLINK-3793,2022,95.44,260.0,+,53.22,Active,1,LEO,USA,USA,Commercial,Communications,Falcon,1 52380U 22045BB  23275.84469290  .00001232  00000+0  95479-4 0  9997,2 52380  53.2162 209.3297 0001493  90.3624 269.7540 15.08836293 81874,15.08836293,0.0001493,LEO
52381,STARLINK-3803,2022,95.44,260.0,+,53.22,Active,1,LEO,USA,USA,Commercial,Communications,Falcon,1 52381U 22045BC  23275.85848917  .00004132  00000+0  27758-3 0  9992,2 52381  53.2155 219.2374 0001597  89.6473 270.4702 15.08839574 81741,15.08839574,0.0001597,LEO
52382,STARLINK-3799,2022,95.44,260.0,+,53.21,Active,1,LEO,USA,USA,Commercial,Communications,Falcon,1 52382U 22045BD  23276.11976643  .00003468  00000+0  23585-3 0  9996,2 52382  53.2160 218.0776 0001489 102.3199 257.7960 15.08847125 81788,15.08847125,0.0001489,LEO
52383,STARLINK-3811,2022,95.44,260.0,+,53.22,Active,1,LEO,USA,USA,Commercial,Communications,Falcon,1 52383U 22045BE  23276.54021126  .00001188  00000+0  92715-4 0  9990,2 52383  53.2166 206.2081 0001492  93.9668 266.1495 15.08841646 81984,15.08841646,0.0001492,LEO
52388,JILIN-1 GAOFEN 4A,2022,95.19,43.0,+,97.52,Active,1,LEO,Sea Launch Platform,China,Commercial,Earth Observation,Long March,1 52388U 22046A   23276.52216417  .00014874  00000+0  84743-3 0  9990,2 52388  97.5188   1.0909 0018160 282.1093  77.8103 15.12764342 78709,15.12764342,0.001816,LEO
52389,JILIN-1 GAOFEN 3D04,2022,95.05,43.0,+,97.52,Active,1,LEO,Sea Launch Platform,China,Commercial,Earth Observation,Long March,1 52389U 22046B   23276.52796530  .00015460  00000+0  82944-3 0  9993,2 52389  97.5199   2.6197 0004794 314.3259  45.7580 15.15033408 78795,15.15033408,0.0004794,LEO
52390,JILIN-1 GAOFEN 3D05,2022,95.04,43.0,+,97.51,Active,1,LEO,Sea Launch Platform,China,Commercial,Earth Observation,Long March,1 52390U 22046C   23276.50914479  .00014829  00000+0  79292-3 0  9997,2 52390  97.5130   2.1765 0003675  80.5725 279.5922 15.15165911 78797,15.15165911,0.0003675,LEO
52391,JILIN-1 GAOFEN 3D06,2022,95.04,43.0,+,97.53,Active,1,LEO,Sea Launch Platform,China,Commercial,Earth Observation,Long March,1 52391U 22046D   23276.52055626  .00015467  00000+0  82750-3 0  9992,2 52391  97.5267   3.1875 0000375 293.3461  66.7732 15.15142957 78809,15.15142957,3.75e-05,LEO
52392,JILIN-1 GAOFEN 3D07,2022,95.04,43.0,+,97.52,Active,1,LEO,Sea Launch Platform,China,Commercial,Earth Observation,Long March,1 52392U 22046E   23276.50419014  .00015033  00000+0  80130-3 0  9995,2 52392  97.5194   2.7290 0004024  61.1545 299.0091 15.15275164 78800,15.15275164,0.0004024,LEO
52394,SPACEBEE-143,2022,93.88,2.0,+,97.42,Active,1,LEO,New Zealand,USA,Commercial,Communications,Electron,1 52394U 22047A   23275.79014123  .00056320  00000+0  17021-2 0  9992,2 52394  97.4145 359.4125 0005038 322.3098  37.7791 15.34023229 80145,15.34023229,0.0005038,LEO
52395,SPACEBEENZ-15,2022,93.11,2.0,+,97.41,Active,1,LEO,New Zealand,New Zealand,Commercial,Communications,Electron,1 52395U 22047B   23275.48342575  .00126007  00000+0  24685-2 0  9998,2 52395  97.4110   1.7324 0004429 297.7673  62.3127 15.46908545 80270,15.46908545,0.0004429,LEO
52396,SPACEBEENZ-16,2022,93.12,2.0,+,97.41,Active,1,LEO,New Zealand,New Zealand,Commercial,Communications,Electron,1 52396U 22047C   23276.20960006  .00122033  00000+0  23889-2 0  9995,2 52396  97.4104   2.4396 0004671 294.7221  65.3542 15.46944263 80389,15.46944263,0.0004671,LEO
52397,SPACEBEENZ-17,2022,93.16,2.0,+,97.41,Active,1,LEO,New Zealand,New Zealand,Commercial,Communications,Electron,1 52397U 22047D   23276.52122282  .00124058  00000+0  24805-2 0  9995,2 52397  97.4103   2.6346 0004844 297.8325  62.2433 15.46318211 80425,15.46318211,0.0004844,LEO
52398,SPACEBEENZ-18,2022,93.15,2.0,+,97.41,Active,1,LEO,New Zealand,New Zealand,Commercial,Communications,Electron,1 52398U 22047E   23276.51719413  .00126060  00000+0  25059-2 0  9990,2 52398  97.4104   2.6346 0004690 296.4027  63.6740 15.46481049 80426,15.46481049,0.000469,LEO
52399,SPACEBEE-140,2022,93.6,2.0,+,97.41,Active,1,LEO,New Zealand,USA,Commercial,Communications,Electron,1 52399U 22047F   23275.78319879  .00076977  00000+0  20023-2 0  9998,2 52399  97.4140   0.4725 0004690 313.4438  46.6416 15.38618431 80238,15.38618431,0.000469,LEO
52400,SPACEBEE-141,2022,93.87,2.0,+,97.42,Active,1,LEO,New Zealand,USA,Commercial,Communications,Electron,1 52400U 22047G   23275.74434500  .00056787  00000+0  17058-2 0  9997,2 52400  97.4144 359.4768 0005126 320.3185  39.7682 15.34213161 80145,15.34213161,0.0005126,LEO
52401,SPACEBEE-142,2022,93.92,2.0,+,97.41,Active,1,LEO,New Zealand,USA,Commercial,Communications,Electron,1 52401U 22047H   23276.16625272  .00050798  00000+0  15621-2 0  9993,2 52401  97.4134 359.6405 0004850 321.3511  38.7383 15.33499782 80198,15.33499782,0.000485,LEO
52402,SPACEBEENZ-20,2022,93.17,2.0,+,97.41,Active,1,LEO,New Zealand,New Zealand,Commercial,Communications,Electron,1 52402U 22047J   23275.78323904  .00119510  00000+0  24286-2 0  9993,2 52402  97.4096   1.7360 0004671 303.8716  56.2088 15.45862317 80305,15.45862317,0.0004671,LEO
